SITRO-AIS 7 (FARTUSHNIY)
1 57194U 23091AE  26202.28243636  .00006834  00000+0  26684-3 0  9996
2 57194  97.5042 265.2619 0010503 356.2724   3.8434 15.26177474169477
AVION KALUGA 650        
1 57195U 23091AF  26202.25106153  .00004197  00000+0  19412-3 0  9997
2 57195  97.5067 261.6933 0009823   1.7966 358.3302 15.20669750169207
HORS 2                  
1 57196U 23091AG  26202.25244126  .00010074  00000+0  32174-3 0  9992
2 57196  97.5066 269.7624 0006274 331.0934  28.9959 15.32655759169748
A-SEANSAT-PG1           
1 57197U 23091AH  26202.24407501  .00013290  00000+0  35730-3 0  9994
2 57197  97.5058 272.5763 0005196 323.2916  36.7972 15.38014985169941
SITRO-AIS 10 (BURDAEV)  
1 57199U 23091AK  26202.24909261  .00015040  00000+0  38156-3 0  9996
2 57199  97.5058 273.6327 0004444 313.4768  46.6107 15.39771784170009
SITRO-AIS 9 (SHCHUKIN)  
1 57201U 23091AM  26202.22164829  .00015051  00000+0  38837-3 0  9999
2 57201  97.5057 273.3071 0004706 314.3021  45.7838 15.39252459169987
UTMN 2 (RS27S)          
1 57203U 23091AP  26202.21109369  .00009772  00000+0  31089-3 0  9993
2 57203  97.5065 269.9192 0006209 325.9823  34.1019 15.32790044169759
SITRO-AIS 12 (SMIRENNIY)
1 57204U 23091AQ  26202.27077385  .00015295  00000+0  39082-3 0  9990
2 57204  97.5069 273.8462 0004346 305.6656  54.4184 15.39550801170018
SITRO-AIS 11 (SHEFFER)  
1 57208U 23091AU  26202.27453495  .00015995  00000+0  40262-3 0  9993
2 57208  97.5068 274.1187 0004270 305.1518  54.9327 15.39999386170038
H2SAT (HEINRICH HERTZ)  
1 57213U 23093A   26202.26003396  .00000003  00000+0  00000+0 0  9997
2 57213   0.0227 109.5354 0000884 224.8025  59.0014  1.00270783 11257
KUZGTU 1 (RS47S)        
1 57217U 23091AV  26202.23380301  .00008462  00000+0  28874-3 0  9990
2 57217  97.5041 267.0744 0009457 343.6335  16.4599 15.30552547169582
QIANKUN-1               
1 57422U 23103B   26197.61257860  .00006165  16552-5  75371-5 0  9999
2 57422  96.1400 240.3808 0035589 130.8922 229.5456 16.07858994172024
FENGYUN 3F              
1 57490U 23111A   26202.29074786  .00000012  00000+0  26074-4 0  9993
2 57490  98.6821 271.6613 0001149  75.2344 284.8960 14.19944087153707
HJ-2F                   
1 57519U 23116A   26202.29603471  .00005577  00000+0  24184-3 0  9999
2 57519  97.3857 206.9322 0006286 285.2603  74.7938 15.22746806163942
XRISM                   
1 57800U 23137A   26202.17501685  .00003023  00000+0  16297-3 0  9996
2 57800  31.0014 139.3952 0007841 305.5740  54.4168 15.12697406158011
METEOR-M2 4             
1 59051U 24039A   26202.29926998  .00000016  00000+0  26855-4 0  9990
2 59051  98.7030 161.1722 0008225  73.6059 286.6023 14.22432637124116
GRBBETA                 
1 60237U 24128C   26202.19826995  .00002318  00000+0  16706-3 0  9992
2 60237  61.9889  96.9197 0036262 142.0386 218.3274 15.06835113111390
TRANSPORTER-11 OBJECT A 
1 60468U 24149A   26202.15729836  .00006283  00000+0  19704-3 0  9999
2 60468  97.3718 281.9914 0005001 102.0360 258.1444 15.33399437107264
WARATAH SEED-1          
1 60469U 24149B   26201.71890420  .00008193  00000+0  23077-3 0  9999
2 60469  97.3674 282.3414 0003336 109.7075 250.4529 15.36702680107262
PHISAT 2                
1 60470U 24149C   26202.15836375  .00005048  00000+0  16859-3 0  9995
2 60470  97.3741 281.1934 0003380 111.8640 248.2962 15.31482805107191
LEMUR-2-TOMATOKECHUP    
1 60471U 24149D   26202.17067799  .00008094  00000+0  22832-3 0  9996
2 60471  97.3785 284.3180 0003443 111.4342 248.7269 15.36660114107385
CONNECTA IOT-1          
1 60472U 24149E   26202.18032414  .00002935  00000+0  12494-3 0  9995
2 60472  97.3743 277.9006 0003207 130.0593 230.0926 15.23770653106972
LOPEN                   
1 60473U 24149F   26202.17487192  .00011580  00000+0  28678-3 0  9999
2 60473  97.3764 285.8292 0003049 123.1225 237.0314 15.40575165107496
ROCK                    
1 60474U 24149G   26202.09670417  .00011593  00000+0  28721-3 0  9998
2 60474  97.3761 285.7642 0003286 120.0436 240.1137 15.40560481107487
CONNECTA IOT-3          
1 60475U 24149H   26202.13574582  .00002907  00000+0  12372-3 0  9994
2 60475  97.3718 277.5994 0004329 129.0417 231.1206 15.23783828106979
QUBE                    
1 60476U 24149J   26202.04594053  .00020618  00000+0  38637-3 0  9991
2 60476  97.3764 289.1692 0003361 118.1018 242.0573 15.48690812107703
WREN-1                  
1 60478U 24149L   26201.74456049  .00013610  00000+0  31293-3 0  9996
2 60478  97.3749 286.2387 0005705 135.8077 224.3627 15.42764744107491
TOMORROW-S1             
1 60479U 24149M   26202.14515154  .00005494  00000+0  17401-3 0  9991
2 60479  97.3735 282.5189 0004280 118.1018 242.0657 15.33144653107291
FLOCK 4BE-18            
1 60480U 24149N   26202.14111088  .00013733  00000+0  31495-3 0  9995
2 60480  97.3716 286.2495 0005411 129.1327 231.0402 15.42841951107544
