OBJECT_NAME,OBJECT_ID,EPOCH,MEAN_MOTION,ECCENTRICITY,INCLINATION,RA_OF_ASC_NODE,ARG_OF_PERICENTER,MEAN_ANOMALY,EPHEMERIS_TYPE,CLASSIFICATION_TYPE,NORAD_CAT_ID,ELEMENT_SET_NO,REV_AT_EPOCH,BSTAR,MEAN_MOTION_DOT,MEAN_MOTION_DDOT
SITRO-AIS 7 (FARTUSHNIY),2023-091AE,2026-07-21T06:46:42.501504,15.26177474,.00105039,97.5042,265.2619,356.2724,3.8434,0,U,57194,999,16947,.26684082E-3,.6834E-4,0
AVION KALUGA 650,2023-091AF,2026-07-21T06:01:31.716192,15.20669750,.00098239,97.5067,261.6933,1.7966,358.3302,0,U,57195,999,16920,.19412042E-3,.4197E-4,0
HORS 2,2023-091AG,2026-07-21T06:03:30.924864,15.32655759,.00062742,97.5066,269.7624,331.0934,28.9959,0,U,57196,999,16974,.32173738E-3,.10074E-3,0
A-SEANSAT-PG1,2023-091AH,2026-07-21T05:51:28.080864,15.38014985,.00051963,97.5058,272.5763,323.2916,36.7972,0,U,57197,999,16994,.35729618E-3,.1329E-3,0
SITRO-AIS 10 (BURDAEV),2023-091AK,2026-07-21T05:58:41.601504,15.39771784,.00044443,97.5058,273.6327,313.4768,46.6107,0,U,57199,999,17000,.38156063E-3,.1504E-3,0
SITRO-AIS 9 (SHCHUKIN),2023-091AM,2026-07-21T05:19:10.412256,15.39252459,.00047069,97.5057,273.3071,314.3021,45.7838,0,U,57201,999,16998,.38836693E-3,.15051E-3,0
UTMN 2 (RS27S),2023-091AP,2026-07-21T05:03:58.494816,15.32790044,.00062092,97.5065,269.9192,325.9823,34.1019,0,U,57203,999,16975,.31088913E-3,.9772E-4,0
SITRO-AIS 12 (SMIRENNIY),2023-091AQ,2026-07-21T06:29:54.860640,15.39550801,.00043463,97.5069,273.8462,305.6656,54.4184,0,U,57204,999,17001,.39081739E-3,.15295E-3,0
SITRO-AIS 11 (SHEFFER),2023-091AU,2026-07-21T06:35:19.819680,15.39999386,.00042701,97.5068,274.1187,305.1518,54.9327,0,U,57208,999,17003,.40261882E-3,.15995E-3,0
H2SAT (HEINRICH HERTZ),2023-093A,2026-07-21T06:14:26.934144,1.00270783,.00008841,0.0227,109.5354,224.8025,59.0014,0,U,57213,999,1125,0,.3E-7,0
KUZGTU 1 (RS47S),2023-091AV,2026-07-21T05:36:40.580064,15.30552547,.00094575,97.5041,267.0744,343.6335,16.4599,0,U,57217,999,16958,.28873565E-3,.8462E-4,0
QIANKUN-1,2023-103B,2026-07-16T14:42:06.791040,16.07858994,.0035589,96.1400,240.3808,130.8922,229.5456,0,U,57422,999,17202,.75371E-5,.6165E-4,.16552E-5
FENGYUN 3F,2023-111A,2026-07-21T06:58:40.615104,14.19944087,.00011491,98.6821,271.6613,75.2344,284.8960,0,U,57490,999,15370,.26074298E-4,.12E-6,0
HJ-2F,2023-116A,2026-07-21T07:06:17.398944,15.22746806,.00062863,97.3857,206.9322,285.2603,74.7938,0,U,57519,999,16394,.24184406E-3,.5577E-4,0
XRISM,2023-137A,2026-07-21T04:12:01.455840,15.12697406,.00078412,31.0014,139.3952,305.5740,54.4168,0,U,57800,999,15801,.1629673E-3,.3023E-4,0
METEOR-M2 4,2024-039A,2026-07-21T07:10:56.926272,14.22432637,.0008225,98.7030,161.1722,73.6059,286.6023,0,U,59051,999,12411,.26855165E-4,.16E-6,0
GRBBETA,2024-128C,2026-07-21T04:45:30.523680,15.06835113,.00362625,61.9889,96.9197,142.0386,218.3274,0,U,60237,999,11139,.16705753E-3,.2318E-4,0
TRANSPORTER-11 OBJECT A,2024-149A,2026-07-21T03:46:30.578304,15.33399437,.00050018,97.3718,281.9914,102.0360,258.1444,0,U,60468,999,10726,.19704339E-3,.6283E-4,0
WARATAH SEED-1,2024-149B,2026-07-20T17:15:13.322880,15.36702680,.00033361,97.3674,282.3414,109.7075,250.4529,0,U,60469,999,10726,.23076636E-3,.8193E-4,0
PHISAT 2,2024-149C,2026-07-21T03:48:02.628000,15.31482805,.00033806,97.3741,281.1934,111.8640,248.2962,0,U,60470,999,10719,.16859389E-3,.5048E-4,0
LEMUR-2-TOMATOKECHUP,2024-149D,2026-07-21T04:05:46.578336,15.36660114,.00034432,97.3785,284.3180,111.4342,248.7269,0,U,60471,999,10738,.22832386E-3,.8094E-4,0
CONNECTA IOT-1,2024-149E,2026-07-21T04:19:40.005696,15.23770653,.00032074,97.3743,277.9006,130.0593,230.0926,0,U,60472,999,10697,.12494346E-3,.2935E-4,0
LOPEN,2024-149F,2026-07-21T04:11:48.933888,15.40575165,.00030494,97.3764,285.8292,123.1225,237.0314,0,U,60473,999,10749,.28677603E-3,.1158E-3,0
ROCK,2024-149G,2026-07-21T02:19:15.240288,15.40560481,.00032869,97.3761,285.7642,120.0436,240.1137,0,U,60474,999,10748,.28721224E-3,.11593E-3,0
CONNECTA IOT-3,2024-149H,2026-07-21T03:15:28.438848,15.23783828,.00043294,97.3718,277.5994,129.0417,231.1206,0,U,60475,999,10697,.12371758E-3,.2907E-4,0
QUBE,2024-149J,2026-07-21T01:06:09.261792,15.48690812,.0003361,97.3764,289.1692,118.1018,242.0573,0,U,60476,999,10770,.38637319E-3,.20618E-3,0
WREN-1,2024-149L,2026-07-20T17:52:10.026336,15.42764744,.00057055,97.3749,286.2387,135.8077,224.3627,0,U,60478,999,10749,.3129315E-3,.1361E-3,0
TOMORROW-S1,2024-149M,2026-07-21T03:29:01.093056,15.33144653,.00042803,97.3735,282.5189,118.1018,242.0657,0,U,60479,999,10729,.17401088E-3,.5494E-4,0
FLOCK 4BE-18,2024-149N,2026-07-21T03:23:11.980032,15.42841951,.00054117,97.3716,286.2495,129.1327,231.0402,0,U,60480,999,10754,.31494658E-3,.13733E-3,0
